{"type":"FeatureCollection","features":[{"type":"Feature","properties":{"name":"SERPRO Carbon Project Zone","source_name":"Project Area KAL","boundary_role":"carbon_project_zone","project":"SERPRO","project_owner":"PT Kalamanthana Alam Lestari","geometry_representation":"generalized_100m_for_webgis"},"geometry":{"type":"Polygon","coordinates":[[[112.7066586063525,-2.917463068873486],[112.6280358269269,-2.917204187670037],[112.6280833312608,-2.942111112733805],[112.5382010707174,-2.942267439885778],[112.5380944682305,-2.958109823729471],[112.4909346521039,-2.958543952949603],[112.4909338674048,-2.942323648891926],[112.4366449083919,-2.942369911909435],[112.4400421486354,-2.962668878642212],[112.4253340564132,-2.970943608980018],[112.4165371502078,-2.981259259306209],[112.4135262885772,-2.990843657064034],[112.4143651866823,-3.004416530491367],[112.4128739937253,-3.011919072907269],[112.4099301958002,-3.019952060806476],[112.4028258464586,-3.025570835743423],[112.401782528208,-3.033818087086376],[112.3982777687093,-3.034923528857458],[112.3909148306505,-3.033303535523907],[112.3888801250217,-3.034958230586501],[112.3911445538344,-3.051434983554645],[112.3841922667615,-3.060372176444822],[112.383504138515,-3.065160672390149],[112.3855519334765,-3.06882222359695],[112.3947401479554,-3.076039680461491],[112.3986542480215,-3.084787770701722],[112.3971253997446,-3.08762356279369],[112.3879595760555,-3.091539198330132],[112.3825768742719,-3.096245463590471],[112.3826408037601,-3.100173837334802],[112.3874661834274,-3.106799433790255],[112.385870566165,-3.11396417559594],[112.3749115104572,-3.12032219699312],[112.3730745635044,-3.13080650148309],[112.3217294094945,-3.161566937232834],[112.2754452115851,-3.161615453982944],[112.2801891243822,-3.175318387441509],[112.283133936787,-3.175165190177211],[112.2859771521283,-3.18515813630679],[112.2937771509526,-3.200658137594497],[112.3096318662311,-3.224656699658218],[112.3808883654403,-3.224650649330962],[112.3867478446196,-3.227248198829702],[112.3949774987139,-3.226991028182357],[112.400533388506,-3.229165969813725],[112.4093686487037,-3.235669383582029],[112.4173490691154,-3.23867411498367],[112.4219086132742,-3.246083524773012],[112.4248966842299,-3.247688210405844],[112.4290060144686,-3.246647147240778],[112.4336473415848,-3.241991500245061],[112.4347995502369,-3.236314107237101],[112.4318833582024,-3.228637579386028],[112.4351366149322,-3.226382207272941],[112.4397100325338,-3.230633342635487],[112.4420788980565,-3.241002590984309],[112.4489963708044,-3.244960494741923],[112.4531889259387,-3.251827568243007],[112.4581065503193,-3.252877725877263],[112.4696341457405,-3.250173930224819],[112.4844254988065,-3.260688211726862],[112.4880670282557,-3.259976340748299],[112.4904979403334,-3.257311137605963],[112.494663401673,-3.245387678221763],[112.5004106894804,-3.243189182399087],[112.5023745090903,-3.248518970839591],[112.5031560473478,-3.264479674063446],[112.51018893147,-3.267795957726678],[112.5150692754373,-3.273890291107784],[112.5217660718392,-3.27821622738691],[112.5312310698642,-3.293804806829496],[112.5330915804415,-3.292387473110009],[112.5355161959569,-3.282667346629665],[112.6450127929464,-3.224468031956387],[112.6618833332105,-3.222263980167857],[112.6689785788511,-3.214111927394791],[112.6744167777476,-3.203140501028527],[112.6884860032332,-3.20717645586],[112.6943929598229,-3.198463378552222],[112.7026229684994,-3.193302721804201],[112.7029359270188,-3.188205874887029],[112.7093501282096,-3.184804833223597],[112.7145307869119,-3.179675965428259],[112.7174692495766,-3.171727546481956],[112.7201314612809,-3.169474040644578],[112.7159755200983,-3.163028473528153],[112.7128175575513,-3.14325099648405],[112.7142096988289,-3.136566234708254],[112.7191046467642,-3.127825090837676],[112.7178191770684,-3.123580694897796],[112.7188073090707,-3.11648439032657],[112.8121518624839,-3.116483242490719],[112.812256231464,-3.035993888993512],[112.8110497604809,-3.030064413800971],[112.8122855242009,-3.017850729392443],[112.8121289642093,-2.923094155249401],[112.7632860935549,-2.922933060445405],[112.7617772779209,-2.92503766892068],[112.7627438387603,-2.928720710809285],[112.7535372139709,-2.93056555706403],[112.7502380358821,-2.936121557448713],[112.745841283517,-2.939836993707902],[112.7416078889838,-2.941494535322303],[112.7327284027969,-2.940162285181913],[112.730663700644,-2.945978311542096],[112.7282753421779,-2.948135395332049],[112.7170204253221,-2.950691481774233],[112.7134923288448,-2.950403173563241],[112.7155390648368,-2.938893593774148],[112.7143152428661,-2.929079587729796],[112.7101608514372,-2.920113557284379],[112.7066586063525,-2.917463068873486]]]}}]}
