{"type":"FeatureCollection","name":"SERPRO Project Area (Concession)","features":[{"type":"Feature","properties":{"name":"SERPRO Project Area","source":"KAL_Boundary_Split.kml","generalized_for_web":true,"simplification_tolerance_degrees":0.001},"geometry":{"type":"MultiPolygon","coordinates":[[[[112.6386566617,-3.1015432358],[112.631799716,-3.1061931343],[112.6309636278,-3.1240912752],[112.6357163964,-3.1316260078],[112.6375288456,-3.1400877344],[112.6371558626,-3.1489779294],[112.6467325012,-3.1631426649],[112.6427324606,-3.1710528937],[112.6354624404,-3.176363863],[112.6305528962,-3.1838233946],[112.6318179414,-3.1886295869],[112.6276340488,-3.1891002649],[112.6219120026,-3.1951389313],[112.6138861174,-3.1953925688],[112.6211187084,-3.1839573207],[112.621675825,-3.1802766205],[112.6125051129,-3.1625445779],[112.6118947896,-3.1564967112],[112.6185092929,-3.1483955381],[112.6262611359,-3.1472702708],[112.6295725123,-3.1412291189],[112.6298318501,-3.1292570952],[112.6252387616,-3.1161809952],[112.6286872955,-3.1052879449],[112.6275735078,-3.1027403025],[112.6284735009,-3.0989497246],[112.631082868,-3.0957563611],[112.6379110105,-3.0936527364],[112.6470133414,-3.097451067],[112.652506706,-3.097177955],[112.654093527,-3.0936875971],[112.6527550103,-3.0905716926],[112.6443315692,-3.0857303228],[112.6435802006,-3.0832462745],[112.6461586566,-3.0781525708],[112.6517129499,-3.0726427907],[112.6630608378,-3.0659849735],[112.6569105866,-3.0730374365],[112.6527308355,-3.0810291646],[112.6554367051,-3.0972214402],[112.6476338063,-3.1008961981],[112.6386566617,-3.1015432358]]],[[[112.7003407694,-3.1229950612],[112.6799836074,-3.1123027781],[112.6827792184,-3.1052627351],[112.6888758884,-3.1036252035],[112.6913353063,-3.1114887526],[112.7050895467,-3.1222910166],[112.7111399615,-3.108734712],[112.7045274284,-3.1027860966],[112.7104991387,-3.0962292686],[112.7136635747,-3.0893333673],[112.7169233722,-3.0879333094],[112.7182864989,-3.090195191],[112.7132514839,-3.1015963445],[112.7140281423,-3.1090465092],[112.7105583269,-3.1162323152],[112.7108202415,-3.1279877985],[112.7066739018,-3.1285100359],[112.7003407694,-3.1229950612]]],[[[112.5322738949,-3.0792877371],[112.5336318959,-3.0906795396],[112.5367521913,-3.0927483662],[112.5392316202,-3.0844116009],[112.5436265225,-3.0806671293],[112.5590454731,-3.08166808],[112.5623793328,-3.0802630377],[112.5633944775,-3.0769381345],[112.5561463925,-3.0708553504],[112.5583282485,-3.0656471046],[112.5737777906,-3.0690070892],[112.5800947768,-3.0620655054],[112.5860462291,-3.0612783801],[112.5970554536,-3.0668244256],[112.5991384758,-3.0644307368],[112.6014348603,-3.0530079386],[112.6040898598,-3.0488962608],[112.6073477944,-3.0486956094],[112.6108803347,-3.0540213348],[112.6159616456,-3.0535168868],[112.6185018364,-3.0497515391],[112.6201116781,-3.0385649172],[112.618269406,-3.0209932081],[112.6218592327,-3.0159164603],[112.6390941113,-3.0194535627],[112.6425499426,-3.0350305239],[112.6497677087,-3.0394537831],[112.6517815187,-3.0431067253],[112.6509805894,-3.052823596],[112.6469367855,-3.0607791839],[112.6430612576,-3.0648153756],[112.6338524981,-3.0701182104],[112.6239265064,-3.0823131914],[112.611612317,-3.0844018157],[112.6014730444,-3.09112918],[112.5952319377,-3.0919095821],[112.5891816586,-3.0909668646],[112.5746399914,-3.0827852133],[112.5709853521,-3.0828564869],[112.5663696736,-3.0863064138],[112.5648133577,-3.091698359],[112.5660797524,-3.0960293937],[112.5746399411,-3.107141936],[112.5840852533,-3.1155478896],[112.5901891147,-3.1306507475],[112.5902116783,-3.1384877441],[112.5853595726,-3.1520099638],[112.5778446198,-3.1641273502],[112.5591297146,-3.1798343658],[112.5504703519,-3.1912441253],[112.5449875415,-3.1952368973],[112.5370807405,-3.1957808492],[112.5176851635,-3.1935790245],[112.516202611,-3.1885829041],[112.5133538008,-3.1864536124],[112.506651704,-3.18584323],[112.5265441569,-3.1748263622],[112.5320148466,-3.1659107206],[112.5307254791,-3.162061691],[112.5217533111,-3.1563224789],[112.5203876493,-3.1504020681],[112.524553298,-3.1430511466],[112.5347080234,-3.1347293856],[112.5360507974,-3.1246967304],[112.5402160305,-3.1174042355],[112.5409107209,-3.1121559141],[112.5376758576,-3.1076927187],[112.5254154211,-3.1046295158],[112.513872251,-3.0946458334],[112.5155514909,-3.0915852206],[112.5211728383,-3.090785783],[112.5250191677,-3.0875628466],[112.5250300674,-3.0807840851],[112.5203636078,-3.0810198997],[112.511402672,-3.0779929036],[112.5051473387,-3.0869491361],[112.4996956709,-3.0896449471],[112.4963172039,-3.086314811],[112.4980845144,-3.0780856419],[112.4961043846,-3.0737729402],[112.4937407741,-3.0741447032],[112.4866908601,-3.0802202773],[112.4813309027,-3.0790474785],[112.4821629769,-3.0747041095],[112.490353292,-3.0701004415],[112.4913487533,-3.0669082253],[112.4889022467,-3.0645421294],[112.4750833032,-3.0706554314],[112.4742515501,-3.0689201177],[112.4760445701,-3.0647392912],[112.4688037511,-3.0628862134],[112.4670109771,-3.0606637129],[112.4682548161,-3.0582111322],[112.4727482925,-3.0567941197],[112.4730233368,-3.053971992],[112.4677130311,-3.0497285726],[112.4644397801,-3.0437368155],[112.4615103705,-3.0446090447],[112.4595420404,-3.0493508435],[112.4498065073,-3.0529817267],[112.4489977056,-3.0569984284],[112.444755734,-3.0607213299],[112.444687374,-3.0690194642],[112.4481204068,-3.0683856814],[112.4538576035,-3.0637654015],[112.457496809,-3.0650991457],[112.4530489833,-3.0778124863],[112.4561621072,-3.0797071055],[112.4597476372,-3.0741853401],[112.4617006363,-3.0738751991],[112.4631581308,-3.0755735609],[112.4573977009,-3.0880897205],[112.4623952587,-3.0965843033],[112.4599843416,-3.1006935063],[112.4531879429,-3.1001052848],[112.4525609242,-3.1030368155],[112.4604498324,-3.1101527959],[112.464455533,-3.1201862518],[112.4667453775,-3.1204547883],[112.4695063017,-3.1161908342],[112.4725960139,-3.1160148413],[112.4749156129,-3.1176122977],[112.4775930227,-3.1247442735],[112.4784399253,-3.1324215211],[112.4722298527,-3.1377843861],[112.471352158,-3.1418554314],[112.4729623149,-3.1483920332],[112.4704147835,-3.1502492055],[112.4670810707,-3.144140243],[112.4645770584,-3.1433482473],[112.4631812423,-3.1448786635],[112.4633791805,-3.1497257305],[112.46849921,-3.1552264572],[112.4685520333,-3.1588621678],[112.4651277818,-3.1613902745],[112.4625110625,-3.1574230195],[112.4559497842,-3.159729003],[112.4495639799,-3.1540355681],[112.4395829888,-3.1628914704],[112.4349899346,-3.1740493561],[112.4314136511,-3.1760520935],[112.4287281032,-3.1757221217],[112.4253390779,-3.1730045908],[112.4193804552,-3.1631636249],[112.4085693016,-3.1632055593],[112.4049452706,-3.1609494167],[112.3998716343,-3.1461688106],[112.3914180856,-3.1352997327],[112.39174648,-3.1297730175],[112.399886869,-3.1118816931],[112.4009202157,-3.1010077547],[112.4086103191,-3.0955305693],[112.4124679584,-3.0952470285],[112.4152069094,-3.089902401],[112.4151458735,-3.0847795011],[112.4112696785,-3.0817326892],[112.4016952005,-3.0663500657],[112.4027176725,-3.0565717938],[112.4039759949,-3.0539574559],[112.4109191903,-3.0501592154],[112.4089311045,-3.0484618709],[112.4174879718,-3.0427231862],[112.4225770416,-3.0430419638],[112.4318316978,-3.0473527107],[112.4345245834,-3.0470054189],[112.4377822769,-3.0438898432],[112.4407503346,-3.037319784],[112.4397508307,-3.0324016658],[112.4355926398,-3.0310053614],[112.4272007034,-3.0336212532],[112.4228928879,-3.0309972238],[112.4210739136,-3.0246813291],[112.4215545663,-3.0209317194],[112.425384119,-3.0145759064],[112.4255371098,-3.009991407],[112.4271469132,-3.0111799235],[112.427444458,-3.0084395414],[112.4296417246,-3.0083224766],[112.4278348689,-3.0047984835],[112.4379729053,-3.004761531],[112.44622821,-2.9998065612],[112.4463730124,-2.9969084439],[112.440612948,-2.9918796705],[112.4417423618,-2.9888480844],[112.4457093263,-2.9868833876],[112.4555514154,-2.9863314754],[112.4603810219,-2.9845044312],[112.4622887321,-2.9827513406],[112.4637380615,-2.977072016],[112.4678351886,-2.974200863],[112.4748515504,-2.9744814898],[112.4796838868,-2.9818425781],[112.4797525953,-2.9853584352],[112.4778221173,-2.9880896529],[112.4700554459,-2.9920094094],[112.469437156,-2.9951083626],[112.4708486253,-2.9969642152],[112.4820868972,-2.9983307925],[112.4934622671,-2.9946369629],[112.5000162315,-2.9973368285],[112.5000162191,-2.9998035698],[112.4871454823,-3.0086741826],[112.4838188234,-3.0142046037],[112.486276901,-3.0202162563],[112.4921499861,-3.0267217621],[112.4934015934,-3.0320776468],[112.4924858024,-3.0362818257],[112.4893959374,-3.0389942205],[112.4868251065,-3.0376578531],[112.4826593983,-3.038990817],[112.4757009703,-3.0378336607],[112.4732749092,-3.042395226],[112.4745722262,-3.0470872695],[112.4851999062,-3.0575905058],[112.49567505,-3.0576028466],[112.4974374509,-3.0647179666],[112.5002598684,-3.067020171],[112.5051583879,-3.0633348969],[112.5064245882,-3.0580254509],[112.5094842959,-3.0554650936],[112.5113993482,-3.058156368],[112.5095986332,-3.0679627287],[112.5148173968,-3.0699334462],[112.5199443654,-3.0676434506],[112.5207635786,-3.0612301974],[112.5193570889,-3.0533654195],[112.5216228396,-3.0508118551],[112.523682889,-3.0511398996],[112.5256663328,-3.0561340027],[112.5249262735,-3.0624179899],[112.5292981224,-3.0720566898],[112.5285274874,-3.0760661401],[112.5322738949,-3.0792877371]]],[[[112.7846111548,-3.0878338777],[112.76580305,-3.0899709915],[112.7622842575,-3.0835655419],[112.7541395523,-3.0976677536],[112.7482496533,-3.0935359178],[112.7539728622,-3.089294392],[112.7583530977,-3.0834726045],[112.7662006579,-3.0801679878],[112.7651820511,-3.0598053914],[112.7667198996,-3.0701166732],[112.7691860203,-3.0753269192],[112.7719631201,-3.0698833469],[112.7746791825,-3.0578880312],[112.7771739958,-3.0548667908],[112.7808437348,-3.0536479947],[112.7857861337,-3.0563541318],[112.7883265889,-3.0637572202],[112.7957960412,-3.0702366912],[112.7960932559,-3.0741603964],[112.792728519,-3.0785506196],[112.7787440537,-3.081486469],[112.7791024126,-3.0853470952],[112.7846111548,-3.0878338777]]],[[[112.6970196274,-3.0367746899],[112.6942355026,-3.0453790663],[112.688983704,-3.052133519],[112.6730843964,-3.0512217153],[112.6723660055,-3.037490134],[112.6646219244,-3.0208688105],[112.6627145888,-3.0129018755],[112.666315864,-2.9845526373],[112.6733810803,-2.9767651083],[112.679942397,-2.9760021136],[112.7099109306,-2.9815638492],[112.7279240933,-2.9998144476],[112.7263752025,-3.0047741404],[112.7177460196,-3.0096769619],[112.7168305928,-3.0142108664],[112.7185167578,-3.0218368662],[112.7153339726,-3.0255093218],[112.7078815035,-3.0271130972],[112.7006029528,-3.0236868139],[112.6967654263,-3.0240907459],[112.6953770143,-3.0302956362],[112.6971085671,-3.0338874964],[112.7056131504,-3.0363757029],[112.6970196274,-3.0367746899]]]]}}]}